    PK15TK0P  2016 11  3.2345  3.359828  0.537367   82.5828    6.9140    8.7787  20250412  11.0  4.0  P/2015 TP200 (LINEAR)                                    MPC110080
    PK15W020  2015 10  8.5324  2.659992  0.635285  117.7077  294.0752   11.6202  20250412  13.0  4.0  P/2015 W2 (Catalina)                                     MPC101098
    PK15X030  2026 10 23.6066  2.799440  0.439879  306.9713   77.2555   24.4225  20250412  15.0  4.0  P/2015 X3 (PANSTARRS)                                    MPEC 2023-J29
    PK15X060  2025 05 11.5097  2.273711  0.174017  329.7506  106.9316    4.5656  20250412  16.0  4.0  P/2015 X6 (PANSTARRS)                                    MPC115881
    PK16A030  2017 04 26.3944  4.822784  0.387021  340.7991  187.1351    8.5205  20250412  10.0  4.0  P/2016 A3 (PANSTARRS)                                    MPEC 2022-OB6
    PK16A070  2027 05 28.1554  2.178745  0.569627  352.6847  220.8374   16.3446  20250412  16.0  4.0  P/2016 A7 (PANSTARRS)                                    MPC102098
    PK16G010  2025 05 16.1462  2.041075  0.210054  111.0876  204.0114   10.9699  20250412  14.0  4.0  P/2016 G1 (PANSTARRS)                                    MPEC 2021-P47
    CK16J020  2016 04 12.8930  1.496218  1.000382  318.2779  186.2937  130.3689  20250412  17.0  4.0  C/2016 J2 (Denneau)                                      MPEC 2024-C04
    PK16P010  2027 03  5.7367  2.282905  0.287455  270.9806  319.0680   24.4297  20250412  15.0  4.0  P/2016 P1 (PANSTARRS)                                    MPC102099
    PK16P050  2023 05 22.5798  4.431220  0.057275   33.9080  185.3791    7.0378  20250412  13.2  4.0  P/2016 P5 (COIAS)                                        MPEC 2025-F40
    CK16Q020  2021 05 11.7462  7.079929  1.002538   84.5311  322.3480  109.3294  20250412   6.0  4.0  C/2016 Q2 (PANSTARRS)                                    MPEC 2024-H50
    PK16R040  2028 11 19.4397  2.803213  0.474797  174.1060  168.2688   10.8645  20250412  12.5  4.0  P/2016 R4 (Gibbs)                                        MPEC 2022-K19
    PK16S010  2017 03 20.4081  2.380810  0.712000  273.1633  227.6499   94.7333  20250412  12.0  4.0  P/2016 S1 (PANSTARRS)                                    MPC105543
    PK16W48M  2017 02 27.2884  1.764610  0.784110   36.1812   59.9478  117.6230  20250412  15.0  4.0  P/2016 WM48 (Lemmon)                                     MPC106345
    CK16X010  2019 04 30.5604  7.559689  0.997070  224.6024  256.3004   26.4697  20250412   6.0  4.0  C/2016 X1 (Lemmon)                                       MPEC 2021-P47
    CK17B030  2019 01 30.1983  3.933508  0.998884  284.7721    2.2394   54.2180  20250412   6.0  4.0  C/2017 B3 (LINEAR)                                       MPEC 2022-OB6
    PK17B040  2017 01  5.8178  2.800894  0.364952   11.0197  121.4578   20.0584            14.5  4.0  P/2017 B4 (PANSTARRS)                                    MPC103847
    PK17D010  2027 01 30.9299  2.711107  0.437815    8.0724   82.1943   20.7715  20250412  14.0  4.0  P/2017 D1 (Fuls)                                         MPEC 2022-OB6
    PK17D040  2016 09 10.4248  2.786146  0.630584  212.1295  264.9134   10.5614  20250412  13.0  4.0  P/2017 D4 (PANSTARRS)                                    MPEC 2022-OB6
    PK17G010  2016 04 20.7598  2.511483  0.650816  225.2490  247.1389    5.1553  20250412  13.5  4.0  P/2017 G1 (PANSTARRS)                                    MPEC 2024-C04
    PK17G020  2017 06 10.1923  2.822283  0.648804  105.2133   79.8984   47.9683  20250412  13.0  4.0  P/2017 G2 (PANSTARRS)                                    MPC108595
    CK17K020  2022 12 18.7426  1.799719  0.999189  236.1821   88.2217   87.6443  20250412   1.5  4.0  C/2017 K2 (PANSTARRS)                                    MPC182878
    PK17K030  2030 07 31.6144  2.351259  0.579115  253.2888  354.2053    4.2724  20250412  14.5  4.0  P/2017 K3 (Gasparovic)                                   MPEC 2021-N06
    CK17K050  2020 03 25.6764  7.678525  1.003062  171.9511  102.4563   82.2788  20250412   5.0  4.0  C/2017 K5 (PANSTARRS)                                    MPEC 2021-P47
    CK17M040  2019 01 17.6836  3.236965  1.000253  167.4247   66.0157  105.6256  20250412   6.0  4.0  C/2017 M4 (ATLAS)                                        MPEC 2022-OB6
    PK17P010  2018 06 19.7138  5.472742  0.309107  122.7901  221.4688    7.6880  20250412  10.0  4.0  P/2017 P1 (PANSTARRS)                                    MPC114599
    PK17S080  2027 05  4.4842  1.691847  0.391129  254.9146  191.5116   29.8402  20250412  16.0  4.0  P/2017 S8 (PANSTARRS)                                    MPEC 2022-OB6
    CK17T020  2020 05  5.9408  1.604424  0.998983   92.7819   64.4415   57.2872  20250412   5.0  4.0  C/2017 T2 (PANSTARRS)                                    MPEC 2024-A43
    PK17T13W  2018 06 23.7148  2.064847  0.710691  120.0082  322.1306   44.8815  20250412  15.0  2.0  P/2017 TW13 (Lemmon)                                     MPC115882
    PK17U030  2030 03 15.5279  4.423779  0.100814  296.4264  165.0593   15.9216  20250412  11.0  4.0  P/2017 U3 (PANSTARRS)                                    MPEC 2022-K19
    CK17U070  2019 09 16.2511  6.420420  1.002758  326.4278  276.3196  142.6391  20250412   8.3  2.0  C/2017 U7 (PANSTARRS)                                    MPEC 2023-A50
    PK17W030  2018 02 26.5524  3.854806  0.506989  327.7685  210.0771   18.1864  20250412  10.5  4.0  P/2017 W3 (Gibbs)                                        MPC114601
    CK17Y020  2020 11  4.9571  4.622307  1.001146  147.8205   66.0320  128.4485  20250412  15.0  4.0  C/2017 Y2 (PANSTARRS)                                    MPEC 2024-DC6
    PK17Y030  2018 02  6.3784  1.277620  0.869572   67.3439  154.0109   27.6264  20250412  16.5  4.0  P/2017 Y3 (Leonard)                                      MPC111770
    CK18A030  2019 01  8.7275  3.292516  0.990457   86.4993  194.3515  139.6025  20250412   8.5  4.0  C/2018 A3 (ATLAS)                                        MPEC 2021-P47
    PK18A050  2031 01 31.1677  2.674465  0.524490  359.5483   87.7836   23.6243  20250412  15.0  4.0  P/2018 A5 (PANSTARRS)                                    MPC109147
    CK18A060  2019 07 10.2720  3.017212  0.798827  264.2737  340.4524   77.1538  20250412   9.0  4.0  C/2018 A6 (Gibbs)                                        MPEC 2024-JU4
    PK18C010  2031 07 31.0532  2.640391  0.532639  235.7919  270.2066    5.1020  20250412  13.5  4.0  P/2018 C1 (Lemmon-Read)                                  MPC114601
    CK18D04O  2019 08 17.0421  2.421344  0.905101  176.4125  251.3924  160.4462  20250412  11.0  4.0  C/2018 DO4 (Lemmon)                                      MPEC 2022-M88
    CK18F010  2018 12 10.1557  2.992017  0.986259   71.4368  177.3175   46.1668  20250412  11.5  4.0  C/2018 F1 (Grauer)                                       MPEC 2021-R75
    CK18F040  2019 11 30.9659  3.448489  0.998075  263.1975   26.5351   78.1306  20250412  11.0  6.0  C/2018 F4 (PANSTARRS)                                    MPEC 2023-A50
    CK18F04a  2019 11 30.9540  3.448356  0.998022  263.1943   26.5352   78.1308  20250412  11.0  6.0  C/2018 F4-A                                              MPEC 2021-Y10
    CK18F04b  2019 11 30.8908  3.448173  0.998111  263.1800   26.5347   78.1317  20250412  11.0  6.0  C/2018 F4-B                                              MPEC 2023-D41
    PK18H020  2027 03 18.3128  2.027736  0.539919  119.2262   67.9833    7.4181  20250412  16.6  2.0  P/2018 H2 (PANSTARRS)                                    MPC114602
    CK18K03J  2019 09  8.8844  3.617659  0.994889  217.5407   91.6950  136.6209  20250412  12.2  2.0  C/2018 KJ3 (Lemmon)                                      MPEC 2021-R75
    PK18L010  2025 11  5.8387  1.897364  0.481297   17.9514  268.5846   10.5785  20250412  15.0  4.0  P/2018 L1 (PANSTARRS)                                    MPC114602
    CK18L020  2018 11 29.6673  1.721468  0.992730   56.3467  242.9877   67.2117  20250412  10.0  4.0  C/2018 L2 (ATLAS)                                        MPEC 2021-P47
    PK18L040  2029 07 28.8651  1.691229  0.658241  140.5092  145.2235   26.5925  20250412  17.5  4.0  P/2018 L4 (PANSTARRS)                                    MPC114603
    CK18N020  2019 11 12.0793  3.135194  1.001993   25.3205   24.5229   77.5035  20250412   6.0  4.0  C/2018 N2 (ASASSN)                                       MPEC 2022-YN2
    PK18P040  2018 11  7.2777  3.688316  0.449134    8.5165  353.1576   23.0803  20250412  12.0  4.0  P/2018 P4 (PANSTARRS)                                    MPC114603
    CK18P050  2019 02 25.9490  4.602972  0.641682  132.0382  216.2676    7.2464  20250412  11.0  4.0  C/2018 P5 (PANSTARRS)                                    MPEC 2021-P47
    CK18R030  2019 06  8.0431  1.283944  0.999278  112.7952  324.3757   69.6894  20250412   9.5  4.0  C/2018 R3 (Lemmon)                                       MPC118841
    CK18R050  2019 01 10.7664  3.638110  0.841695  178.2730  171.2624  103.6882  20250412  11.5  4.0  C/2018 R5 (Lemmon)                                       MPC114603
    CK18S020  2018 11  5.5558  5.490105  0.617950  290.9441   85.1074   64.1106  20250412   7.5  4.0  C/2018 S2 (TESS)                                         MPEC 2022-QC6
    CK18U010  2021 11  2.2252  4.986504  1.000248  180.3622   75.5150  108.3257  20250412   5.0  4.0  C/2018 U1 (Lemmon)                                       MPEC 2024-JU4
    CK18V010  2018 12  4.0120  0.390955  1.000457   89.5633  129.5843  144.1977  20250412  12.0  4.0  C/2018 V1 (Machholz-Fujikawa-Iwamoto)                    MPC114604
    CK18V020  2018 11 26.2443  2.492439  0.901261  319.2779  357.2123  159.1621  20250412  15.0  4.0  C/2018 V2 (ATLAS)                                        MPC115884
    PK18V02N  2026 08 15.7289  2.119230  0.478181  138.9259  226.4390   18.2575  20250412  15.0  4.0  P/2018 VN2 (Leonard)                                     MPEC 2025-A40
